{"type": "FeatureCollection", "features": [ {"type": "Feature", "properties": {"norad_id": 39574, "name": "GPM-CORE", "group": "resource", "lat": 19.405697792059698, "lon": -114.26892937899657, "alt_km": 432.4874620130213, "timestamp": "2025-12-05T16:54:14.326815+00:00", "meta": {"OBJECT_NAME": "GPM-CORE", "OBJECT_ID": "2014-009C", "EPOCH": "2025-12-05T05:56:18.813408", "MEAN_MOTION": 15.45273764, "ECCENTRICITY": 0.00105365, "INCLINATION": 64.9749, "RA_OF_ASC_NODE": 237.7897, "ARG_OF_PERICENTER": 269.2243, "MEAN_ANOMALY": 90.769, "EPHEMERIS_TYPE": 0, "CLASSIFICATION_TYPE": "U", "NORAD_CAT_ID": 39574, "ELEMENT_SET_NO": 999, "REV_AT_EPOCH": 66785, "BSTAR": 0.00051753336, "MEAN_MOTION_DOT": 0.00024653, "MEAN_MOTION_DDOT": 0}, "tle": {"line1": "1 39574U 14009C   25339.24743997  .00024653  00000+0  51753-3 0  9992", "line2": "2 39574  64.9749 237.7897 0010536 269.2243  90.7690 15.45273764667852"}}, "geometry": {"type": "Point", "coordinates": [-114.26892937899657, 19.405697792059698]}}, {"type": "Feature", "properties": {"norad_id": 39634, "name": "SENTINEL-1A", "group": "resource", "lat": -81.58660545548258, "lon": 88.50210248080631, "alt_km": 703.9728861980875, "timestamp": "2025-12-05T16:54:14.326823+00:00", "meta": {"OBJECT_NAME": "SENTINEL-1A", "OBJECT_ID": "2014-016A", "EPOCH": "2025-12-05T07:27:02.511072", "MEAN_MOTION": 14.59202279, "ECCENTRICITY": 0.00012375, "INCLINATION": 98.1804, "RA_OF_ASC_NODE": 344.6616, "ARG_OF_PERICENTER": 89.84, "MEAN_ANOMALY": 270.2942, "EPHEMERIS_TYPE": 0, "CLASSIFICATION_TYPE": "U", "NORAD_CAT_ID": 39634, "ELEMENT_SET_NO": 999, "REV_AT_EPOCH": 62174, "BSTAR": 6.0487101e-05, "MEAN_MOTION_DOT": 2.39e-06, "MEAN_MOTION_DDOT": 0}, "tle": {"line1": "1 39634U 14016A   25339.31044573  .00000239  00000+0  60487-4 0  9998", "line2": "2 39634  98.1804 344.6616 0001237  89.8400 270.2942 14.59202279621746"}}, "geometry": {"type": "Point", "coordinates": [88.50210248080631, -81.58660545548258]}}, {"type": "Feature", "properties": {"norad_id": 39731, "name": "KAZEOSAT 1", "group": "resource", "lat": -43.52461624400806, "lon": 59.78250485434542, "alt_km": 758.9573950620934, "timestamp": "2025-12-05T16:54:14.326832+00:00", "meta": {"OBJECT_NAME": "KAZEOSAT 1", "OBJECT_ID": "2014-024A", "EPOCH": "2025-12-05T07:06:59.837760", "MEAN_MOTION": 14.42055939, "ECCENTRICITY": 0.00010593, "INCLINATION": 98.3443, "RA_OF_ASC_NODE": 51.3708, "ARG_OF_PERICENTER": 99.5038, "MEAN_ANOMALY": 260.6272, "EPHEMERIS_TYPE": 0, "CLASSIFICATION_TYPE": "U", "NORAD_CAT_ID": 39731, "ELEMENT_SET_NO": 999, "REV_AT_EPOCH": 61061, "BSTAR": 0.00016429719, "MEAN_MOTION_DOT": 4.97e-06, "MEAN_MOTION_DDOT": 0}, "tle": {"line1": "1 39731U 14024A   25339.29652590  .00000497  00000+0  16430-3 0  9990", "line2": "2 39731  98.3443  51.3708 0001059  99.5038 260.6272 14.42055939610610"}}, "geometry": {"type": "Point", "coordinates": [59.78250485434542, -43.52461624400806]}}, {"type": "Feature", "properties": {"norad_id": 39766, "name": "ALOS-2", "group": "resource", "lat": -25.501352954839902, "lon": 78.46036447532504, "alt_km": 637.3732376000098, "timestamp": "2025-12-05T16:54:14.326841+00:00", "meta": {"OBJECT_NAME": "ALOS-2", "OBJECT_ID": "2014-029A", "EPOCH": "2025-12-05T07:16:51.545568", "MEAN_MOTION": 14.79456881, "ECCENTRICITY": 0.00014854, "INCLINATION": 97.9238, "RA_OF_ASC_NODE": 74.2558, "ARG_OF_PERICENTER": 106.6429, "MEAN_ANOMALY": 253.4946, "EPHEMERIS_TYPE": 0, "CLASSIFICATION_TYPE": "U", "NORAD_CAT_ID": 39766, "ELEMENT_SET_NO": 999, "REV_AT_EPOCH": 62291, "BSTAR": 0.00048657938, "MEAN_MOTION_DOT": 3.583e-05, "MEAN_MOTION_DDOT": 0}, "tle": {"line1": "1 39766U 14029A   25339.30337437  .00003583  00000+0  48658-3 0  9991", "line2": "2 39766  97.9238  74.2558 0001485 106.6429 253.4946 14.79456881622914"}}, "geometry": {"type": "Point", "coordinates": [78.46036447532504, -25.501352954839902]}}, {"type": "Feature", "properties": {"norad_id": 40010, "name": "KAZEOSAT 2", "group": "resource", "lat": 77.01668709461276, "lon": 39.50420343527147, "alt_km": 609.3277496402034, "timestamp": "2025-12-05T16:54:14.326861+00:00", "meta": {"OBJECT_NAME": "KAZEOSAT 2", "OBJECT_ID": "2014-033A", "EPOCH": "2025-12-05T06:45:00.857952", "MEAN_MOTION": 14.85148918, "ECCENTRICITY": 0.00073211, "INCLINATION": 97.551, "RA_OF_ASC_NODE": 183.9807, "ARG_OF_PERICENTER": 234.3773, "MEAN_ANOMALY": 125.6761, "EPHEMERIS_TYPE": 0, "CLASSIFICATION_TYPE": "U", "NORAD_CAT_ID": 40010, "ELEMENT_SET_NO": 999, "REV_AT_EPOCH": 62017, "BSTAR": 0.00017184561, "MEAN_MOTION_DOT": 1.421e-05, "MEAN_MOTION_DDOT": 0}, "tle": {"line1": "1 40010U 14033A   25339.28125993  .00001421  00000+0  17185-3 0  9999", "line2": "2 40010  97.5510 183.9807 0007321 234.3773 125.6761 14.85148918620175"}}, "geometry": {"type": "Point", "coordinates": [39.50420343527147, 77.01668709461276]}}, {"type": "Feature", "properties": {"norad_id": 40011, "name": "HODOYOSHI-4", "group": "resource", "lat": 49.44445264562356, "lon": -2.1597754678784056, "alt_km": 602.759837250419, "timestamp": "2025-12-05T16:54:14.326871+00:00", "meta": {"OBJECT_NAME": "HODOYOSHI-4", "OBJECT_ID": "2014-033B", "EPOCH": "2025-12-05T06:37:58.497600", "MEAN_MOTION": 14.87438469, "ECCENTRICITY": 0.00227531, "INCLINATION": 97.5412, "RA_OF_ASC_NODE": 168.5282, "ARG_OF_PERICENTER": 226.0863, "MEAN_ANOMALY": 133.8476, "EPHEMERIS_TYPE": 0, "CLASSIFICATION_TYPE": "U", "NORAD_CAT_ID": 40011, "ELEMENT_SET_NO": 999, "REV_AT_EPOCH": 61997, "BSTAR": 0.00044399097, "MEAN_MOTION_DOT": 3.986e-05, "MEAN_MOTION_DDOT": 0}, "tle": {"line1": "1 40011U 14033B   25339.27637150  .00003986  00000+0  44399-3 0  9997", "line2": "2 40011  97.5412 168.5282 0022753 226.0863 133.8476 14.87438469619972"}}, "geometry": {"type": "Point", "coordinates": [-2.1597754678784056, 49.44445264562356]}}, {"type": "Feature", "properties": {"norad_id": 40013, "name": "DEIMOS-2", "group": "resource", "lat": 31.033495556329846, "lon": 40.347946374731436, "alt_km": 586.8188359730248, "timestamp": "2025-12-05T16:54:14.326880+00:00", "meta": {"OBJECT_NAME": "DEIMOS-2", "OBJECT_ID": "2014-033D", "EPOCH": "2025-12-05T06:35:21.482880", "MEAN_MOTION": 14.92920582, "ECCENTRICITY": 9.449e-05, "INCLINATION": 97.6071, "RA_OF_ASC_NODE": 215.3204, "ARG_OF_PERICENTER": 92.5974, "MEAN_ANOMALY": 267.5354, "EPHEMERIS_TYPE": 0, "CLASSIFICATION_TYPE": "U", "NORAD_CAT_ID": 40013, "ELEMENT_SET_NO": 999, "REV_AT_EPOCH": 60878, "BSTAR": 0.00049174711, "MEAN_MOTION_DOT": 5.048e-05, "MEAN_MOTION_DDOT": 0}, "tle": {"line1": "1 40013U 14033D   25339.27455420  .00005048  00000+0  49175-3 0  9995", "line2": "2 40013  97.6071 215.3204 0000944  92.5974 267.5354 14.92920582608783"}}, "geometry": {"type": "Point", "coordinates": [40.347946374731436, 31.033495556329846]}}, {"type": "Feature", "properties": {"norad_id": 40015, "name": "HODOYOSHI-3", "group": "resource", "lat": 56.229630689418386, "lon": -22.606758044270958, "alt_km": 628.05353681829, "timestamp": "2025-12-05T16:54:14.326889+00:00", "meta": {"OBJECT_NAME": "HODOYOSHI-3", "OBJECT_ID": "2014-033F", "EPOCH": "2025-12-05T06:38:42.881280", "MEAN_MOTION": 14.84766036, "ECCENTRICITY": 0.00318393, "INCLINATION": 97.6194, "RA_OF_ASC_NODE": 145.4367, "ARG_OF_PERICENTER": 273.4939, "MEAN_ANOMALY": 86.2635, "EPHEMERIS_TYPE": 0, "CLASSIFICATION_TYPE": "U", "NORAD_CAT_ID": 40015, "ELEMENT_SET_NO": 999, "REV_AT_EPOCH": 61884, "BSTAR": 0.0004179405, "MEAN_MOTION_DOT": 3.524e-05, "MEAN_MOTION_DDOT": 0}, "tle": {"line1": "1 40015U 14033F   25339.27688520  .00003524  00000+0  41794-3 0  9992", "line2": "2 40015  97.6194 145.4367 0031839 273.4939  86.2635 14.84766036618841"}}, "geometry": {"type": "Point", "coordinates": [-22.606758044270958, 56.229630689418386]}}, {"type": "Feature", "properties": {"norad_id": 40053, "name": "SPOT 7", "group": "resource", "lat": 80.91348682603055, "lon": -75.24352446334042, "alt_km": 682.3390831188435, "timestamp": "2025-12-05T16:54:14.326898+00:00", "meta": {"OBJECT_NAME": "SPOT 7", "OBJECT_ID": "2014-034A", "EPOCH": "2025-12-05T08:15:17.005248", "MEAN_MOTION": 14.60719281, "ECCENTRICITY": 0.00015279, "INCLINATION": 98.0916, "RA_OF_ASC_NODE": 41.5896, "ARG_OF_PERICENTER": 95.9133, "MEAN_ANOMALY": 264.2242, "EPHEMERIS_TYPE": 0, "CLASSIFICATION_TYPE": "U", "NORAD_CAT_ID": 40053, "ELEMENT_SET_NO": 999, "REV_AT_EPOCH": 60883, "BSTAR": 0.00024255522, "MEAN_MOTION_DOT": 1.137e-05, "MEAN_MOTION_DDOT": 0}, "tle": {"line1": "1 40053U 14034A   25339.34394682  .00001137  00000+0  24256-3 0  9998", "line2": "2 40053  98.0916  41.5896 0001527  95.9133 264.2242 14.60719281608831"}}, "geometry": {"type": "Point", "coordinates": [-75.24352446334042, 80.91348682603055]}}, {"type": "Feature", "properties": {"norad_id": 40072, "name": "SKYSAT-B", "group": "resource", "lat": 74.24689607445858, "lon": -108.37961915125415, "alt_km": 599.6326687212841, "timestamp": "2025-12-05T16:54:14.326908+00:00", "meta": {"OBJECT_NAME": "SKYSAT-B", "OBJECT_ID": "2014-037D", "EPOCH": "2025-12-05T05:15:28.764288", "MEAN_MOTION": 14.87283111, "ECCENTRICITY": 0.00055298, "INCLINATION": 98.3598, "RA_OF_ASC_NODE": 282.5286, "ARG_OF_PERICENTER": 172.8855, "MEAN_ANOMALY": 187.2439, "EPHEMERIS_TYPE": 0, "CLASSIFICATION_TYPE": "U", "NORAD_CAT_ID": 40072, "ELEMENT_SET_NO": 999, "REV_AT_EPOCH": 61712, "BSTAR": 0.00038962845, "MEAN_MOTION_DOT": 3.454e-05, "MEAN_MOTION_DDOT": 0}, "tle": {"line1": "1 40072U 14037D   25339.21908292  .00003454  00000+0  38963-3 0  9990", "line2": "2 40072  98.3598 282.5286 0005529 172.8855 187.2439 14.87283111617124"}}, "geometry": {"type": "Point", "coordinates": [-108.37961915125415, 74.24689607445858]}}]}